[{"OBJECT_NAME":"STARLINK-4267","OBJECT_ID":"2022-062AL","EPOCH":"2026-03-09T06:32:35.119680","MEAN_MOTION":15.0884444,"ECCENTRICITY":0.00013438,"INCLINATION":53.2172,"RA_OF_ASC_NODE":25.9927,"ARG_OF_PERICENTER":85.6232,"MEAN_ANOMALY":274.4914,"EPHEMERIS_TYPE":0,"CLASSIFICATION_TYPE":"U","NORAD_CAT_ID":52864,"ELEMENT_SET_NO":999,"REV_AT_EPOCH":20586,"BSTAR":-1.2812798e-5,"MEAN_MOTION_DOT":-4.92e-6,"MEAN_MOTION_DDOT":0},{"OBJECT_NAME":"CZ-4C R\/B","OBJECT_ID":"2021-026B","EPOCH":"2026-03-09T16:37:41.696544","MEAN_MOTION":15.16445633,"ECCENTRICITY":0.00393855,"INCLINATION":97.7468,"RA_OF_ASC_NODE":117.371,"ARG_OF_PERICENTER":22.5612,"MEAN_ANOMALY":337.7341,"EPHEMERIS_TYPE":0,"CLASSIFICATION_TYPE":"U","NORAD_CAT_ID":48080,"ELEMENT_SET_NO":999,"REV_AT_EPOCH":27175,"BSTAR":0.00026802982,"MEAN_MOTION_DOT":5.244e-5,"MEAN_MOTION_DDOT":0}]
